[{"OBJECT_NAME":"ONEWEB-0012","OBJECT_ID":"2019-010A","EPOCH":"2025-11-15T09:32:43.367424","MEAN_MOTION":13.16593595,"ECCENTRICITY":0.0001673,"INCLINATION":87.9001,"RA_OF_ASC_NODE":271.3699,"ARG_OF_PERICENTER":92.229,"MEAN_ANOMALY":267.9033,"EPHEMERIS_TYPE":0,"CLASSIFICATION_TYPE":"U","NORAD_CAT_ID":44057,"ELEMENT_SET_NO":999,"REV_AT_EPOCH":32343,"BSTAR":0.00012698,"MEAN_MOTION_DOT":6.1e-7,"MEAN_MOTION_DDOT":0},{"OBJECT_NAME":"ONEWEB-0010","OBJECT_ID":"2019-010B","EPOCH":"2025-11-15T13:48:05.201280","MEAN_MOTION":13.16589344,"ECCENTRICITY":0.0002256,"INCLINATION":87.9009,"RA_OF_ASC_NODE":271.322,"ARG_OF_PERICENTER":80.4541,"MEAN_ANOMALY":279.6844,"EPHEMERIS_TYPE":0,"CLASSIFICATION_TYPE":"U","NORAD_CAT_ID":44058,"ELEMENT_SET_NO":999,"REV_AT_EPOCH":32350,"BSTAR":9.3693e-5,"MEAN_MOTION_DOT":4.9e-7,"MEAN_MOTION_DDOT":0},{"OBJECT_NAME":"ONEWEB-0008","OBJECT_ID":"2019-010C","EPOCH":"2025-11-15T19:52:52.609152","MEAN_MOTION":13.16593642,"ECCENTRICITY":0.0001796,"INCLINATION":87.9013,"RA_OF_ASC_NODE":271.2678,"ARG_OF_PERICENTER":75.5777,"MEAN_ANOMALY":284.5553,"EPHEMERIS_TYPE":0,"CLASSIFICATION_TYPE":"U","NORAD_CAT_ID":44059,"ELEMENT_SET_NO":999,"REV_AT_EPOCH":32365,"BSTAR":-0.00019708,"MEAN_MOTION_DOT":-6.2e-7,"MEAN_MOTION_DDOT":0},{"OBJECT_NAME":"ONEWEB-0007","OBJECT_ID":"2019-010D","EPOCH":"2025-11-15T11:10:45.213312","MEAN_MOTION":13.15560265,"ECCENTRICITY":0.0002213,"INCLINATION":87.8962,"RA_OF_ASC_NODE":301.8761,"ARG_OF_PERICENTER":96.8409,"MEAN_ANOMALY":263.2973,"EPHEMERIS_TYPE":0,"CLASSIFICATION_TYPE":"U","NORAD_CAT_ID":44060,"ELEMENT_SET_NO":999,"REV_AT_EPOCH":32327,"BSTAR":-0.0076817,"MEAN_MOTION_DOT":-2.879e-5,"MEAN_MOTION_DDOT":0},{"OBJECT_NAME":"ONEWEB-0006","OBJECT_ID":"2019-010E","EPOCH":"2025-11-15T16:45:04.896576","MEAN_MOTION":13.15548822,"ECCENTRICITY":0.0002163,"INCLINATION":87.8971,"RA_OF_ASC_NODE":301.7742,"ARG_OF_PERICENTER":89.3672,"MEAN_ANOMALY":270.7706,"EPHEMERIS_TYPE":0,"CLASSIFICATION_TYPE":"U","NORAD_CAT_ID":44061,"ELEMENT_SET_NO":999,"REV_AT_EPOCH":32335,"BSTAR":0.00024317,"MEAN_MOTION_DOT":1.04e-6,"MEAN_MOTION_DDOT":0},{"OBJECT_NAME":"ONEWEB-0011","OBJECT_ID":"2019-010F","EPOCH":"2025-11-15T15:59:25.391904","MEAN_MOTION":13.15546523,"ECCENTRICITY":0.0001975,"INCLINATION":87.8964,"RA_OF_ASC_NODE":301.7908,"ARG_OF_PERICENTER":81.34,"MEAN_ANOMALY":278.7954,"EPHEMERIS_TYPE":0,"CLASSIFICATION_TYPE":"U","NORAD_CAT_ID":44062,"ELEMENT_SET_NO":999,"REV_AT_EPOCH":32334,"BSTAR":-0.00017343,"MEAN_MOTION_DOT":-5.2e-7,"MEAN_MOTION_DDOT":0},{"OBJECT_NAME":"ONEWEB-0013","OBJECT_ID":"2020-008A","EPOCH":"2025-11-15T19:54:28.780128","MEAN_MOTION":13.09439022,"ECCENTRICITY":0.0001475,"INCLINATION":87.849,"RA_OF_ASC_NODE":95.9122,"ARG_OF_PERICENTER":135.6378,"MEAN_ANOMALY":224.4867,"EPHEMERIS_TYPE":0,"CLASSIFICATION_TYPE":"U","NORAD_CAT_ID":45131,"ELEMENT_SET_NO":999,"REV_AT_EPOCH":27814,"BSTAR":0.0021492,"MEAN_MOTION_DOT":7.53e-6,"MEAN_MOTION_DDOT":0},{"OBJECT_NAME":"ONEWEB-0017","OBJECT_ID":"2020-008B","EPOCH":"2025-11-15T19:25:47.457120","MEAN_MOTION":13.10371968,"ECCENTRICITY":0.0001768,"INCLINATION":87.88,"RA_OF_ASC_NODE":78.8095,"ARG_OF_PERICENTER":97.4061,"MEAN_ANOMALY":262.7267,"EPHEMERIS_TYPE":0,"CLASSIFICATION_TYPE":"U","NORAD_CAT_ID":45132,"ELEMENT_SET_NO":999,"REV_AT_EPOCH":28000,"BSTAR":-0.00063477,"MEAN_MOTION_DOT":-2.09e-6,"MEAN_MOTION_DDOT":0},{"OBJECT_NAME":"ONEWEB-0020","OBJECT_ID":"2020-008C","EPOCH":"2025-11-15T18:42:46.671840","MEAN_MOTION":13.10376332,"ECCENTRICITY":0.0001527,"INCLINATION":87.8807,"RA_OF_ASC_NODE":78.801,"ARG_OF_PERICENTER":96.1361,"MEAN_ANOMALY":263.9941,"EPHEMERIS_TYPE":0,"CLASSIFICATION_TYPE":"U","NORAD_CAT_ID":45133,"ELEMENT_SET_NO":999,"REV_AT_EPOCH":28039,"BSTAR":0.0017319,"MEAN_MOTION_DOT":6.17e-6,"MEAN_MOTION_DDOT":0},{"OBJECT_NAME":"ONEWEB-0021","OBJECT_ID":"2020-008D","EPOCH":"2025-11-15T19:04:18.179040","MEAN_MOTION":13.10372836,"ECCENTRICITY":0.0001654,"INCLINATION":87.8802,"RA_OF_ASC_NODE":78.8292,"ARG_OF_PERICENTER":105.5343,"MEAN_ANOMALY":254.5967,"EPHEMERIS_TYPE":0,"CLASSIFICATION_TYPE":"U","NORAD_CAT_ID":45134,"ELEMENT_SET_NO":999,"REV_AT_EPOCH":28070,"BSTAR":0.001409,"MEAN_MOTION_DOT":5.05e-6,"MEAN_MOTION_DDOT":0},{"OBJECT_NAME":"ONEWEB-0023","OBJECT_ID":"2020-008F","EPOCH":"2025-11-15T19:19:49.406016","MEAN_MOTION":13.10371231,"ECCENTRICITY":0.0001299,"INCLINATION":87.8798,"RA_OF_ASC_NODE":78.8094,"ARG_OF_PERICENTER":103.1034,"MEAN_ANOMALY":257.0238,"EPHEMERIS_TYPE":0,"CLASSIFICATION_TYPE":"U","NORAD_CAT_ID":45136,"ELEMENT_SET_NO":999,"REV_AT_EPOCH":28013,"BSTAR":0.00017941,"MEAN_MOTION_DOT":7.5e-7,"MEAN_MOTION_DDOT":0},{"OBJECT_NAME":"ONEWEB-0024","OBJECT_ID":"2020-008G","EPOCH":"2025-11-15T18:40:23.635776","MEAN_MOTION":13.10376976,"ECCENTRICITY":0.000163,"INCLINATION":87.8823,"RA_OF_ASC_NODE":78.7784,"ARG_OF_PERICENTER":100.5026,"MEAN_ANOMALY":259.6285,"EPHEMERIS_TYPE":0,"CLASSIFICATION_TYPE":"U","NORAD_CAT_ID":45137,"ELEMENT_SET_NO":999,"REV_AT_EPOCH":28029,"BSTAR":0.0015176,"MEAN_MOTION_DOT":5.42e-6,"MEAN_MOTION_DDOT":0},{"OBJECT_NAME":"ONEWEB-0025","OBJECT_ID":"2020-008H","EPOCH":"2025-11-15T19:05:29.484096","MEAN_MOTION":13.10370078,"ECCENTRICITY":0.0001576,"INCLINATION":87.8804,"RA_OF_ASC_NODE":78.7812,"ARG_OF_PERICENTER":115.3782,"MEAN_ANOMALY":244.7508,"EPHEMERIS_TYPE":0,"CLASSIFICATION_TYPE":"U","NORAD_CAT_ID":45138,"ELEMENT_SET_NO":999,"REV_AT_EPOCH":28062,"BSTAR":0.0013705,"MEAN_MOTION_DOT":4.91e-6,"MEAN_MOTION_DDOT":0},{"OBJECT_NAME":"ONEWEB-0026","OBJECT_ID":"2020-008J","EPOCH":"2025-11-15T12:39:45.033984","MEAN_MOTION":13.11414289,"ECCENTRICITY":0.0001741,"INCLINATION":87.8872,"RA_OF_ASC_NODE":63.611,"ARG_OF_PERICENTER":98.0485,"MEAN_ANOMALY":262.0841,"EPHEMERIS_TYPE":0,"CLASSIFICATION_TYPE":"U","NORAD_CAT_ID":45139,"ELEMENT_SET_NO":999,"REV_AT_EPOCH":28310,"BSTAR":0.00078915,"MEAN_MOTION_DOT":2.92e-6,"MEAN_MOTION_DDOT":0},{"OBJECT_NAME":"ONEWEB-0028","OBJECT_ID":"2020-008K","EPOCH":"2025-11-15T07:57:44.170272","MEAN_MOTION":13.1141814,"ECCENTRICITY":0.0001558,"INCLINATION":87.8858,"RA_OF_ASC_NODE":63.6664,"ARG_OF_PERICENTER":126.8522,"MEAN_ANOMALY":233.2749,"EPHEMERIS_TYPE":0,"CLASSIFICATION_TYPE":"U","NORAD_CAT_ID":45140,"ELEMENT_SET_NO":999,"REV_AT_EPOCH":28059,"BSTAR":-0.0018864,"MEAN_MOTION_DOT":-6.56e-6,"MEAN_MOTION_DDOT":0},{"OBJECT_NAME":"ONEWEB-0032","OBJECT_ID":"2020-008L","EPOCH":"2025-11-15T17:38:12.702336","MEAN_MOTION":13.1037213,"ECCENTRICITY":0.0001483,"INCLINATION":87.88,"RA_OF_ASC_NODE":78.8243,"ARG_OF_PERICENTER":108.5553,"MEAN_ANOMALY":251.5735,"EPHEMERIS_TYPE":0,"CLASSIFICATION_TYPE":"U","NORAD_CAT_ID":45141,"ELEMENT_SET_NO":999,"REV_AT_EPOCH":28034,"BSTAR":-0.00079186,"MEAN_MOTION_DOT":-2.64e-6,"MEAN_MOTION_DDOT":0},{"OBJECT_NAME":"ONEWEB-0033","OBJECT_ID":"2020-008M","EPOCH":"2025-11-15T15:12:26.647200","MEAN_MOTION":13.10388714,"ECCENTRICITY":0.0001914,"INCLINATION":87.8799,"RA_OF_ASC_NODE":78.857,"ARG_OF_PERICENTER":89.4427,"MEAN_ANOMALY":270.6919,"EPHEMERIS_TYPE":0,"CLASSIFICATION_TYPE":"U","NORAD_CAT_ID":45142,"ELEMENT_SET_NO":999,"REV_AT_EPOCH":28024,"BSTAR":-0.00015453,"MEAN_MOTION_DOT":-4.1e-7,"MEAN_MOTION_DDOT":0}]
