ONEWEB-0012             
1 44057U 19010A   25319.39772416  .00000061  00000+0  12698-3 0  9995
2 44057  87.9001 271.3699 0001673  92.2290 267.9033 13.16593595323437
ONEWEB-0010             
1 44058U 19010B   25319.57506020  .00000049  00000+0  93693-4 0  9993
2 44058  87.9009 271.3220 0002256  80.4541 279.6844 13.16589344323507
ONEWEB-0008             
1 44059U 19010C   25319.82838668 -.00000062  00000+0 -19708-3 0  9999
2 44059  87.9013 271.2678 0001796  75.5777 284.5553 13.16593642323657
ONEWEB-0007             
1 44060U 19010D   25319.46580108 -.00002879  00000+0 -76817-2 0  9995
2 44060  87.8962 301.8761 0002213  96.8409 263.2973 13.15560265323279
ONEWEB-0006             
1 44061U 19010E   25319.69797334  .00000104  00000+0  24317-3 0  9998
2 44061  87.8971 301.7742 0002163  89.3672 270.7706 13.15548822323352
ONEWEB-0011             
1 44062U 19010F   25319.66626611 -.00000052  00000+0 -17343-3 0  9990
2 44062  87.8964 301.7908 0001975  81.3400 278.7954 13.15546523323348
ONEWEB-0013             
1 45131U 20008A   25319.82949977  .00000753  00000+0  21492-2 0  9993
2 45131  87.8490  95.9122 0001475 135.6378 224.4867 13.09439022278148
ONEWEB-0017             
1 45132U 20008B   25319.80957705 -.00000209  00000+0 -63477-3 0  9998
2 45132  87.8800  78.8095 0001768  97.4061 262.7267 13.10371968280005
ONEWEB-0020             
1 45133U 20008C   25319.77970685  .00000617  00000+0  17319-2 0  9991
2 45133  87.8807  78.8010 0001527  96.1361 263.9941 13.10376332280396
ONEWEB-0021             
1 45134U 20008D   25319.79465485  .00000505  00000+0  14090-2 0  9990
2 45134  87.8802  78.8292 0001654 105.5343 254.5967 13.10372836280704
ONEWEB-0023             
1 45136U 20008F   25319.80543294  .00000075  00000+0  17941-3 0  9990
2 45136  87.8798  78.8094 0001299 103.1034 257.0238 13.10371231280130
ONEWEB-0024             
1 45137U 20008G   25319.77805134  .00000542  00000+0  15176-2 0  9997
2 45137  87.8823  78.7784 0001630 100.5026 259.6285 13.10376976280294
ONEWEB-0025             
1 45138U 20008H   25319.79548014  .00000491  00000+0  13705-2 0  9990
2 45138  87.8804  78.7812 0001576 115.3782 244.7508 13.10370078280625
ONEWEB-0026             
1 45139U 20008J   25319.52760456  .00000292  00000+0  78915-3 0  9992
2 45139  87.8872  63.6110 0001741  98.0485 262.0841 13.11414289283109
ONEWEB-0028             
1 45140U 20008K   25319.33176123 -.00000656  00000+0 -18864-2 0  9997
2 45140  87.8858  63.6664 0001558 126.8522 233.2749 13.11418140280594
ONEWEB-0032             
1 45141U 20008L   25319.73486924 -.00000264  00000+0 -79186-3 0  9995
2 45141  87.8800  78.8243 0001483 108.5553 251.5735 13.10372130280349
ONEWEB-0033             
1 45142U 20008M   25319.63364175 -.00000041  00000+0 -15453-3 0  9998
2 45142  87.8799  78.8570 0001914  89.4427 270.6919 13.10388714280246
